[{"OBJECT_NAME":"STARLINK-36262","OBJECT_ID":"2025-304K","EPOCH":"2026-03-09T17:00:06.312960","MEAN_MOTION":14.98338183,"ECCENTRICITY":0.00031496,"INCLINATION":70.0018,"RA_OF_ASC_NODE":174.5677,"ARG_OF_PERICENTER":272.8714,"MEAN_ANOMALY":87.2084,"EPHEMERIS_TYPE":0,"CLASSIFICATION_TYPE":"U","NORAD_CAT_ID":67201,"ELEMENT_SET_NO":999,"REV_AT_EPOCH":1388,"BSTAR":0.00040898058,"MEAN_MOTION_DOT":4.791e-5,"MEAN_MOTION_DDOT":0},{"OBJECT_NAME":"CZ-6A DEB","OBJECT_ID":"2024-140HV","EPOCH":"2026-03-09T13:53:09.132288","MEAN_MOTION":14.808573,"ECCENTRICITY":0.0152423,"INCLINATION":88.8878,"RA_OF_ASC_NODE":271.6068,"ARG_OF_PERICENTER":149.3328,"MEAN_ANOMALY":211.6917,"EPHEMERIS_TYPE":0,"CLASSIFICATION_TYPE":"U","NORAD_CAT_ID":60842,"ELEMENT_SET_NO":999,"REV_AT_EPOCH":8460,"BSTAR":0.00072437,"MEAN_MOTION_DOT":6.859e-5,"MEAN_MOTION_DDOT":0}]
